NORAD_CAT_ID,OBJECT_NAME,OBJECT_TYPE,EPOCH,MEAN_MOTION,ECCENTRICITY,INCLINATION,RA_OF_ASC_NODE,ARG_OF_PERICENTER,MEAN_ANOMALY,BSTAR,MEAN_MOTION_DOT,MEAN_MOTION_DDOT,TLE_LINE0,TLE_LINE1,TLE_LINE2,SEMIMAJOR_AXIS,PERIOD,APOGEE,PERIGEE,DECAYED
53555.0,STARLINK-4504,PAYLOAD,2023-09-17 03:53:06,15.08843629,0.0001313,53.2173,164.7047,89.8526,270.2616,0.0001002,1.307e-05,0.0,0 STARLINK-4504,1 53555U 22101AE  23260.16188428  .00001307  00000-0  10020-3 0  9997,2 53555  53.2173 164.7047 0001313  89.8526 270.2616 15.08843629 60412,6917.869,95.437,540.643,538.826,0.0
53555.0,STARLINK-4504,PAYLOAD,2023-09-18 02:08:30,15.08847974,0.0001313,53.2173,160.5421,82.4573,277.6568,6.5364e-05,7.53e-06,0.0,0 STARLINK-4504,1 53555U 22101AE  23261.08924321  .00000753  00000-0  65364-4 0  9995,2 53555  53.2173 160.5421 0001313  82.4573 277.6568 15.08847974 59897,6917.856,95.437,540.629,538.813,0.0
53555.0,STARLINK-4504,PAYLOAD,2023-09-18 03:43:53,15.08848379,0.0001303,53.2173,160.2446,81.6104,278.5036,6.504e-05,7.48e-06,0.0,0 STARLINK-4504,1 53555U 22101AE  23261.15548264  .00000748  00000-0  65040-4 0  9996,2 53555  53.2173 160.2446 0001303  81.6104 278.5036 15.08848379 60567,6917.855,95.437,540.621,538.818,0.0
53555.0,STARLINK-4504,PAYLOAD,2023-09-18 21:13:09,15.08837033,0.0001391,53.2181,156.9767,95.6103,264.5047,1.112e-05,-1.11e-06,0.0,0 STARLINK-4504,1 53555U 22101AE  23261.88413333 -.00000111  00000-0  11120-4 0  9999,2 53555  53.2181 156.9767 0001391  95.6103 264.5047 15.08837033 60679,6917.889,95.438,540.717,538.792,0.0
53555.0,STARLINK-4504,PAYLOAD,2023-09-20 01:50:03,15.08856329,0.0001267,53.2171,151.6227,90.8014,269.3123,0.00012206,1.656e-05,0.0,0 STARLINK-4504,1 53555U 22101AE  23263.07643337  .00001656  00000-0  12206-3 0  9990,2 53555  53.2171 151.6227 0001267  90.8014 269.3123 15.08856329 60195,6917.83,95.437,540.572,538.819,0.0
53555.0,STARLINK-4504,PAYLOAD,2023-09-20 20:54:44,15.08828425,0.0001471,53.2185,148.053,91.7862,268.3298,-0.0001347,-2.43e-05,0.0,0 STARLINK-4504,1 53555U 22101AE  23263.87134480 -.00002430  00000-0 -13470-3 0  9999,2 53555  53.2185 148.0530 0001471  91.7862 268.3298 15.08828425 60979,6917.916,95.438,540.798,538.763,0.0
53555.0,STARLINK-4504,PAYLOAD,2023-09-21 01:40:53,15.08827255,0.0001336,53.2169,147.1622,90.1857,269.9288,-0.00016112,-2.85e-05,0.0,0 STARLINK-4504,1 53555U 22101AE  23264.07006724 -.00002850  00000-0 -16112-3 0  9993,2 53555  53.2169 147.1622 0001336  90.1857 269.9288 15.08827255 60347,6917.919,95.438,540.709,538.86,0.0
53555.0,STARLINK-4504,PAYLOAD,2023-09-21 22:20:53,15.088431,0.0001321,53.2178,143.2951,87.4404,272.674,-2.3998e-05,-6.7e-06,0.0,0 STARLINK-4504,1 53555U 22101AE  23264.93117654 -.00000670  00000-0 -23998-4 0  9992,2 53555  53.2178 143.2951 0001321  87.4404 272.6740 15.08843100 61139,6917.871,95.437,540.65,538.822,0.0
53555.0,STARLINK-4504,PAYLOAD,2023-09-22 01:31:39,15.08847024,0.0001378,53.2173,142.7006,83.8692,276.2458,1.8114e-05,0.0,0.0,0 STARLINK-4504,1 53555U 22101AE  23265.06365335  .00000000  00000-0  18114-4 0  9997,2 53555  53.2173 142.7006 0001378  83.8692 276.2458 15.08847024 60493,6917.859,95.437,540.677,538.771,0.0
53555.0,STARLINK-4504,PAYLOAD,2023-09-22 22:11:40,15.08846361,0.0001562,53.2177,138.8307,87.4326,272.6845,0.00032926,4.957e-05,0.0,0 STARLINK-4504,1 53555U 22101AE  23265.92476925  .00004957  00000-0  32926-3 0  9991,2 53555  53.2177 138.8307 0001562  87.4326 272.6845 15.08846361 61287,6917.861,95.437,540.807,538.645,0.0
53555.0,STARLINK-4504,PAYLOAD,2023-09-23 18:51:41,15.08846674,0.0001469,53.2179,134.9676,101.8599,258.2558,4.0264e-05,3.53e-06,0.0,0 STARLINK-4504,1 53555U 22101AE  23266.78589603  .00000353  00000-0  40264-4 0  9995,2 53555  53.2179 134.9676 0001469 101.8599 258.2558 15.08846674 60753,6917.86,95.437,540.741,538.709,0.0
53555.0,STARLINK-4504,PAYLOAD,2023-09-24 01:13:13,15.08848584,0.0001382,53.2177,133.7784,90.828,269.287,5.7649e-05,6.3e-06,0.0,0 STARLINK-4504,1 53555U 22101AE  23267.05085279  .00000630  00000-0  57649-4 0  9999,2 53555  53.2177 133.7784 0001382  90.8280 269.2870 15.08848584 61455,6917.854,95.437,540.675,538.763,0.0
53555.0,STARLINK-4504,PAYLOAD,2023-09-24 18:42:28,15.0883923,0.0001355,53.2169,130.5086,94.5434,265.5713,-0.00011341,-2.092e-05,0.0,0 STARLINK-4504,1 53555U 22101AE  23267.77949656 -.00002092  00000-0 -11341-3 0  9990,2 53555  53.2169 130.5086 0001355  94.5434 265.5713 15.08839230 60900,6917.883,95.438,540.685,538.81,0.0
53555.0,STARLINK-4504,PAYLOAD,2023-09-24 21:53:14,15.08843829,0.0001305,53.2172,129.9127,91.0161,269.0981,-5.0566e-05,-1.093e-05,0.0,0 STARLINK-4504,1 53555U 22101AE  23267.91197751 -.00001093  00000-0 -50566-4 0  9990,2 53555  53.2172 129.9127 0001305  91.0161 269.0981 15.08843829 61586,6917.869,95.437,540.636,538.831,0.0
53555.0,STARLINK-4504,PAYLOAD,2023-09-25 07:25:33,15.08845192,0.0001316,53.2174,128.1289,86.7713,273.343,8.9731e-06,-1.45e-06,0.0,0 STARLINK-4504,1 53555U 22101AE  23268.30941399 -.00000145  00000-0  89731-5 0  9992,2 53555  53.2174 128.1289 0001316  86.7713 273.3430 15.08845192 61643,6917.865,95.437,540.64,538.819,0.0
53555.0,STARLINK-4504,PAYLOAD,2023-09-25 21:44:01,15.08849597,0.0001193,53.2171,125.4527,85.9583,274.1545,0.00018795,2.705e-05,0.0,0 STARLINK-4504,1 53555U 22101AE  23268.90557099  .00002705  00000-0  18795-3 0  9991,2 53555  53.2171 125.4527 0001193  85.9583 274.1545 15.08849597 61733,6917.851,95.437,540.541,538.891,0.0
53555.0,STARLINK-4504,PAYLOAD,2023-09-26 13:37:53,15.08828368,0.0001331,53.2168,122.479,72.4047,287.7091,-2.4146e-05,-6.72e-06,0.0,0 STARLINK-4504,1 53555U 22101AE  23269.56798593 -.00000672  00000-0 -24146-4 0  9991,2 53555  53.2168 122.4790 0001331  72.4047 287.7091 15.08828368 61838,6917.916,95.438,540.702,538.86,0.0
53555.0,STARLINK-4504,PAYLOAD,2023-09-26 18:24:03,15.08830846,0.0001303,53.2159,121.5874,76.3842,283.7296,-3.1919e-05,-7.96e-06,0.0,0 STARLINK-4504,1 53555U 22101AE  23269.76670561 -.00000796  00000-0 -31919-4 0  9990,2 53555  53.2159 121.5874 0001303  76.3842 283.7296 15.08830846 61204,6917.908,95.438,540.675,538.872,0.0
53555.0,STARLINK-4504,PAYLOAD,2023-09-26 21:34:49,15.08830883,0.0001364,53.216,120.9927,69.4387,290.6751,-2.5439e-05,-6.93e-06,0.0,0 STARLINK-4504,1 53555U 22101AE  23269.89918688 -.00000693  00000-0 -25439-4 0  9995,2 53555  53.2160 120.9927 0001364  69.4387 290.6751 15.08830883 61880,6917.908,95.438,540.717,538.83,0.0
53555.0,STARLINK-4504,PAYLOAD,2023-09-27 07:07:08,15.0883165,0.000125,53.2159,119.2066,93.2569,266.8566,8.5988e-07,-2.74e-06,0.0,0 STARLINK-4504,1 53555U 22101AE  23270.29662651 -.00000274  00000-0  85988-6 0  9998,2 53555  53.2159 119.2066 0001250  93.2569 266.8566 15.08831650 61943,6917.906,95.438,540.636,538.906,0.0
53555.0,STARLINK-4504,PAYLOAD,2023-09-27 21:25:36,15.08839956,0.0001353,53.2159,116.5324,94.3824,265.7323,0.00017274,2.462e-05,0.0,0 STARLINK-4504,1 53555U 22101AE  23270.89278687  .00002462  00000-0  17274-3 0  9996,2 53555  53.2159 116.5324 0001353  94.3824 265.7323 15.08839956 61373,6917.881,95.438,540.682,538.81,0.0
53555.0,STARLINK-4504,PAYLOAD,2023-09-28 18:05:38,15.08829028,0.0001574,53.2158,112.6626,86.5307,273.5866,0.00095373,0.00014919,0.0,0 STARLINK-4504,1 53555U 22101AE  23271.75391797  .00014919  00000-0  95373-3 0  9996,2 53555  53.2158 112.6626 0001574  86.5307 273.5866 15.08829028 61501,6917.914,95.438,540.868,538.69,0.0
53555.0,STARLINK-4504,PAYLOAD,2023-09-28 21:16:23,15.08844181,0.0001407,53.2159,112.0675,88.1684,271.9469,0.00045465,6.956e-05,0.0,0 STARLINK-4504,1 53555U 22101AE  23271.88638858  .00006956  00000-0  45465-3 0  9991,2 53555  53.2159 112.0675 0001407  88.1684 271.9469 15.08844181 62184,6917.868,95.437,540.706,538.759,0.0
53555.0,STARLINK-4504,PAYLOAD,2023-09-28 22:51:46,15.08847211,0.0001379,53.2163,111.7702,90.1558,269.9592,0.00032943,4.96e-05,0.0,0 STARLINK-4504,1 53555U 22101AE  23271.95262648  .00004960  00000-0  32943-3 0  9999,2 53555  53.2163 111.7702 0001379  90.1558 269.9592 15.08847211 61536,6917.858,95.437,540.677,538.769,0.0
53555.0,STARLINK-4504,PAYLOAD,2023-09-29 13:10:15,15.08845946,0.0001455,53.2142,109.0981,88.6573,271.4586,0.00021205,3.089e-05,0.0,0 STARLINK-4504,1 53555U 22101AE  23272.54878591  .00003089  00000-0  21205-3 0  9995,2 53555  53.2142 109.0981 0001455  88.6573 271.4586 15.08845946 62283,6917.862,95.437,540.734,538.721,0.0
53555.0,STARLINK-4504,PAYLOAD,2023-09-29 22:42:33,15.08856854,0.0001359,53.2155,107.3141,87.7917,272.323,0.00032373,4.87e-05,0.0,0 STARLINK-4504,1 53555U 22101AE  23272.94621955  .00004870  00000-0  32373-3 0  9996,2 53555  53.2155 107.3141 0001359  87.7917 272.3230 15.08856854 62344,6917.829,95.436,540.634,538.754,0.0
53555.0,STARLINK-4504,PAYLOAD,2023-09-30 06:39:29,15.08843376,0.0001463,53.2147,105.827,79.2432,280.8725,5.3957e-05,5.71e-06,0.0,0 STARLINK-4504,1 53555U 22101AE  23273.27742418  .00000571  00000-0  53957-4 0  9997,2 53555  53.2147 105.8270 0001463  79.2432 280.8725 15.08843376 61735,6917.87,95.437,540.747,538.723,0.0
53555.0,STARLINK-4504,PAYLOAD,2023-09-30 22:33:20,15.08848928,0.0001279,53.216,102.8531,83.8447,276.2691,8.6336e-05,1.087e-05,0.0,0 STARLINK-4504,1 53555U 22101AE  23273.93982070  .00001087  00000-0  86336-4 0  9990,2 53555  53.2160 102.8531 0001279  83.8447 276.2691 15.08848928 62492,6917.853,95.437,540.603,538.833,0.0
53555.0,STARLINK-4504,PAYLOAD,2023-10-01 19:13:20,15.0885322,0.0001269,53.2163,98.9864,86.3784,273.7354,0.00015468,2.176e-05,0.0,0 STARLINK-4504,1 53555U 22101AE  23274.80093687  .00002176  00000-0  15468-3 0  9991,2 53555  53.2163  98.9864 0001269  86.3784 273.7354 15.08853220 61960,6917.84,95.437,540.583,538.827,0.0
53555.0,STARLINK-4504,PAYLOAD,2023-10-02 11:07:12,15.08840025,0.0001552,53.2158,96.0139,81.1574,278.9593,8.2991e-05,1.033e-05,0.0,0 STARLINK-4504,1 53555U 22101AE  23275.46334346  .00001033  00000-0  82991-4 0  9991,2 53555  53.2158  96.0139 0001552  81.1574 278.9593 15.08840025 62066,6917.88,95.438,540.819,538.672,0.0
